MEAN_MOTION;ECCENTRICITY;INCLINATION;RA_OF_ASC_NODE;ARG_OF_PERICENTER;MEAN_ANOMALY;BSTAR;MEAN_MOTION_DOT;MEAN_MOTION_DDOT;TYPE
14.34217815;0.0002764;86.3944;116.0773;87.6692;272.482;1.783E-5;7.0E-7;0;Iridium
14.34217945;0.0002751;86.3943;115.6981;87.2666;272.8845;2.1546E-5;8.0E-7;0;Iridium
14.34217944;0.0002748;86.3942;115.6689;87.1314;273.0196;2.103E-5;7.9E-7;0;Iridium
14.34218064;0.0002731;86.3941;115.2604;86.4966;273.6542;2.3377E-5;8.5E-7;0;Iridium
14.34218096;0.0002729;86.394;115.1145;86.1874;273.9634;2.4144E-5;8.7E-7;0;Iridium
14.3421816;0.0002711;86.3939;114.8809;85.8854;274.2651;2.3899E-5;8.7E-7;0;Iridium
14.34218322;0.0002697;86.3938;114.4724;85.2419;274.9085;2.6819E-5;9.5E-7;0;Iridium
14.34218458;0.0002683;86.3937;114.0347;84.6119;275.5383;2.5757E-5;9.2E-7;0;Iridium
14.34218458;0.0002683;86.3937;114.0347;84.6119;275.5383;2.5757E-5;9.2E-7;0;Iridium
14.34218511;0.0002681;86.3936;113.8596;84.3135;275.8366;2.5131E-5;9.0E-7;0;Iridium
14.34218631;0.000267;86.3936;113.597;83.9896;276.1604;2.5386E-5;9.1E-7;0;Iridium
14.34218677;0.0002669;86.3936;113.4511;83.7056;276.4444;2.5286E-5;9.1E-7;0;Iridium
14.34218798;0.0002652;86.3935;113.1884;83.3364;276.8134;2.4865E-5;8.9E-7;0;Iridium
14.34218807;0.0002652;86.3935;113.1592;83.2874;276.8623;2.4588E-5;8.9E-7;0;Iridium
14.34218969;0.0002626;86.3933;112.6337;82.399;277.7504;2.1545E-5;8.0E-7;0;Iridium
14.34219068;0.0002607;86.3932;112.3418;81.9396;278.2095;2.0474E-5;7.7E-7;0;Iridium
14.34219084;0.0002604;86.3932;112.2251;81.7718;278.3773;1.9703E-5;7.5E-7;0;Iridium
14.3421917;0.0002584;86.3931;111.9332;81.3963;278.7526;1.8804E-5;7.2E-7;0;Iridium
14.34219179;0.0002579;86.3931;111.7872;81.2252;278.9236;1.714E-5;6.8E-7;0;Iridium
14.3421925;0.0002561;86.393;111.5245;80.9576;279.1909;1.6908E-5;6.7E-7;0;Iridium
14.34219286;0.0002555;86.393;111.3493;80.6839;279.4646;1.6875E-5;6.7E-7;0;Iridium
14.34219347;0.0002541;86.3929;111.1158;80.4667;279.6816;1.825E-5;7.1E-7;0;Iridium
14.34219345;0.0002538;86.3929;111.0866;80.4238;279.7245;1.7405E-5;6.9E-7;0;Iridium
14.34219358;0.0002535;86.3929;110.9407;80.2439;279.9043;1.7112E-5;6.8E-7;0;Iridium
14.34219378;0.0002516;86.3928;110.6779;79.8838;280.2642;1.4857E-5;6.1E-7;0;Iridium
14.34219404;0.000251;86.3928;110.532;79.7112;280.4367;1.612E-5;6.5E-7;0;Iridium
14.34219425;0.0002491;86.3927;110.2693;79.4025;280.7451;1.4795E-5;6.1E-7;0;Iridium
14.34219431;0.0002489;86.3927;110.2401;79.3702;280.7774;1.4839E-5;6.1E-7;0;Iridium
14.34219539;0.0002465;86.3926;109.8314;79.0112;281.1361;1.8027E-5;7.0E-7;0;Iridium
14.34219599;0.000246;86.3926;109.7146;78.8416;281.3056;2.0619E-5;7.8E-7;0;Iridium
14.34219694;0.0002439;86.3926;109.4227;78.5048;281.6422;2.2594E-5;8.3E-7;0;Iridium
14.34219749;0.0002429;86.3925;109.2475;78.2956;281.8512;2.3256E-5;8.5E-7;0;Iridium
14.34219828;0.0002411;86.3925;109.0139;78.1055;282.0411;2.442E-5;8.8E-7;0;Iridium
14.34219878;0.0002401;86.3924;108.8388;77.9487;282.1978;2.4356E-5;8.8E-7;0;Iridium
14.34219933;0.0002382;86.3924;108.576;77.7334;282.4128;2.2576E-5;8.3E-7;0;Iridium
14.34219964;0.0002374;86.3924;108.4301;77.5977;282.5484;2.2193E-5;8.2E-7;0;Iridium
14.34219968;0.0002357;86.3924;108.1966;77.5391;282.6068;1.7182E-5;6.8E-7;0;Iridium
14.34220014;0.0002346;86.3923;107.9922;77.3602;282.7856;1.6429E-5;6.6E-7;0;Iridium
14.34220004;0.000233;86.3924;107.7879;77.3063;282.8393;1.2893E-5;5.6E-7;0;Iridium
14.34215444;0.0002291;86.3924;107.5837;76.9443;283.2009;2.2E-5;8.1E-7;0;Iridium
14.34215786;0.0002286;86.3924;107.35;77.7091;282.4361;3.4277E-5;1.16E-6;0;Iridium
14.34215786;0.0002286;86.3924;107.35;77.7091;282.4361;3.4277E-5;1.16E-6;0;Iridium
14.34215794;0.0002284;86.3923;107.3208;77.685;282.4602;3.3912E-5;1.15E-6;0;Iridium
14.34215797;0.0002277;86.3923;107.1748;77.494;282.6511;1.8649E-5;7.2E-7;0;Iridium
14.34215864;0.0002258;86.3924;106.9121;77.3502;282.7946;1.6935E-5;6.7E-7;0;Iridium
14.34215864;0.0002258;86.3924;106.9121;77.3502;282.7946;1.6935E-5;6.7E-7;0;Iridium
14.34215889;0.0002252;86.3924;106.7661;77.2466;282.8981;1.6435E-5;6.6E-7;0;Iridium
14.3421591;0.0002249;86.3924;106.7077;77.2581;282.8866;1.5768E-5;6.4E-7;0;Iridium
14.34215977;0.0002224;86.3924;106.3282;77.0675;283.0769;1.3875E-5;5.9E-7;0;Iridium
14.34215965;0.0002221;86.3924;106.2698;77.0629;283.0815;1.1423E-5;5.2E-7;0;Iridium
14.3421596;0.0002206;86.3924;106.0946;76.9648;283.1794;9.2415E-6;4.6E-7;0;Iridium
14.34215999;0.0002197;86.3924;105.9195;76.8954;283.2487;1.0182E-5;4.8E-7;0;Iridium
14.3421602;0.0002177;86.3924;105.6859;76.8872;283.2566;9.2833E-6;4.6E-7;0;Iridium
14.3421609;0.0002149;86.3924;105.2772;76.8611;283.2825;1.1035E-5;5.1E-7;0;Iridium
14.34216121;0.0002138;86.3924;105.0728;76.8125;283.3309;1.1465E-5;5.2E-7;0;Iridium
14.34216182;0.0002121;86.3924;104.8393;76.6851;283.4581;1.356E-5;5.8E-7;0;Iridium
14.34216211;0.000211;86.3924;104.6641;76.5835;283.5596;1.4291E-5;6.0E-7;0;Iridium
14.34216257;0.0002094;86.3924;104.4305;76.5781;283.5648;1.5554E-5;6.3E-7;0;Iridium
14.34216377;0.0002058;86.3925;103.9927;76.5437;283.5988;1.8362E-5;7.1E-7;0;Iridium
14.34216377;0.0002058;86.3925;103.9927;76.5437;283.5988;1.8362E-5;7.1E-7;0;Iridium
14.3421643;0.0002045;86.3925;103.8175;76.586;283.5564;1.9332E-5;7.4E-7;0;Iridium
14.34216509;0.0002027;86.3925;103.584;76.7228;283.4194;2.0975E-5;7.9E-7;0;Iridium
14.34216562;0.0002018;86.3925;103.4088;76.8096;283.3324;2.1552E-5;8.0E-7;0;Iridium
14.34216602;0.0001997;86.3926;103.1461;76.827;283.3149;2.0288E-5;7.7E-7;0;Iridium
14.34216602;0.0001997;86.3926;103.1461;76.827;283.3149;2.0288E-5;7.7E-7;0;Iridium
14.34216646;0.0001987;86.3926;103.0001;76.8607;283.2811;2.0577E-5;7.7E-7;0;Iridium
14.34216707;0.0001963;86.3926;102.7373;76.4104;283.731;1.9034E-5;7.3E-7;0;Iridium
14.34216744;0.0001954;86.3927;102.5622;76.8539;283.2874;1.8096E-5;7.0E-7;0;Iridium
14.34216898;0.0001931;86.3928;102.1536;77.7229;282.4183;1.8356E-5;7.1E-7;0;Iridium
14.3421697;0.0001919;86.3928;101.9201;77.9591;282.182;1.778E-5;7.0E-7;0;Iridium
14.34217088;0.00019;86.3929;101.4823;79.5768;280.5641;1.6119E-5;6.5E-7;0;Iridium
14.34217088;0.00019;86.3929;101.4823;79.5768;280.5641;1.6119E-5;6.5E-7;0;Iridium
14.3421714;0.0001891;86.3929;101.3072;79.699;280.4419;1.5752E-5;6.4E-7;0;Iridium
14.34217178;0.0001876;86.393;101.0737;80.0586;280.0822;1.4494E-5;6.0E-7;0;Iridium
14.34217202;0.0001869;86.393;100.8986;80.0705;280.0702;1.3361E-5;5.7E-7;0;Iridium
14.34217225;0.0001857;86.3931;100.6651;80.3043;279.8362;1.1858E-5;5.3E-7;0;Iridium
14.34217238;0.0001851;86.3931;100.4899;80.5826;279.5579;1.0817E-5;5.0E-7;0;Iridium
14.34217274;0.0001839;86.3932;100.2564;80.8369;279.3035;1.0641E-5;5.0E-7;0;Iridium
14.34217308;0.0001832;86.3932;100.0521;81.059;279.0813;1.0839E-5;5.0E-7;0;Iridium
14.34217362;0.0001821;86.3933;99.8186;81.3474;278.7928;1.2418E-5;5.5E-7;0;Iridium
14.34217362;0.0001821;86.3933;99.8186;81.3474;278.7928;1.2418E-5;5.5E-7;0;Iridium
14.34217398;0.0001814;86.3933;99.6435;81.6782;278.4619;1.3286E-5;5.7E-7;0;Iridium
14.34217518;0.0001803;86.3934;99.41;82.1616;277.9785;1.7594E-5;6.9E-7;0;Iridium
14.3421753;0.0001801;86.3934;99.2641;82.358;277.782;1.7794E-5;7.0E-7;0;Iridium
14.3421766;0.0001791;86.3934;99.0014;82.7304;277.4096;2.1776E-5;8.1E-7;0;Iridium
14.34217747;0.0001783;86.3935;98.7971;83.2175;276.9224;2.3565E-5;8.6E-7;0;Iridium
14.34217872;0.0001773;86.3935;98.5636;83.0998;277.0399;2.71E-5;9.6E-7;0;Iridium
14.34217872;0.0001773;86.3935;98.5636;83.0998;277.0399;2.71E-5;9.6E-7;0;Iridium
14.34217937;0.0001769;86.3935;98.3885;83.3426;276.7971;2.7738E-5;9.7E-7;0;Iridium
14.34217984;0.0001758;86.3936;98.1259;83.2777;276.8619;2.652E-5;9.4E-7;0;Iridium
14.34218038;0.0001755;86.3937;97.98;83.5504;276.5892;2.6833E-5;9.5E-7;0;Iridium
14.34218144;0.0001751;86.3937;97.7174;84.2353;275.9042;2.7616E-5;9.7E-7;0;Iridium
14.342182;0.0001754;86.3938;97.5423;84.5942;275.5454;2.6982E-5;9.5E-7;0;Iridium
14.34218242;0.0001749;86.3938;97.338;84.8331;275.3064;2.5448E-5;9.1E-7;0;Iridium
14.34218321;0.0001747;86.3939;97.1338;85.129;275.0105;2.5033E-5;9.0E-7;0;Iridium
14.34218391;0.000174;86.394;96.9003;85.4973;274.6421;2.4029E-5;8.7E-7;0;Iridium
14.34218391;0.000174;86.394;96.9003;85.4973;274.6421;2.4029E-5;8.7E-7;0;Iridium
14.34218476;0.0001739;86.394;96.7252;85.7664;274.373;2.4914E-5;9.0E-7;0;Iridium
14.34218543;0.0001733;86.3941;96.4918;86.2608;273.8786;2.3468E-5;8.5E-7;0;Iridium
14.34218614;0.0001734;86.3942;96.2875;86.9272;273.2122;2.2667E-5;8.3E-7;0;Iridium
14.34218676;0.0001733;86.3943;96.0833;87.3906;272.7488;2.2453E-5;8.3E-7;0;Iridium
14.34218727;0.0001738;86.3944;95.8791;87.7078;272.4316;2.0524E-5;7.7E-7;0;Iridium
14.34218748;0.0001734;86.3945;95.6748;87.6516;272.4878;1.8166E-5;7.1E-7;0;Iridium
14.34218789;0.0001737;86.3946;95.4706;88.0824;272.057;1.6529E-5;6.6E-7;0;Iridium
14.34218829;0.0001735;86.3947;95.2372;88.5787;271.5607;1.5184E-5;6.2E-7;0;Iridium
14.34218829;0.0001735;86.3947;95.2372;88.5787;271.5607;1.5184E-5;6.2E-7;0;Iridium
14.34218829;0.0001735;86.3947;95.2372;88.5787;271.5607;1.5184E-5;6.2E-7;0;Iridium
14.34218879;0.0001739;86.3947;95.033;89.1158;271.0237;1.4931E-5;6.2E-7;0;Iridium
14.34218958;0.0001739;86.3948;94.8287;89.6336;270.506;1.6301E-5;6.5E-7;0;Iridium
14.34219;0.0001744;86.3948;94.6245;89.9988;270.1407;1.5829E-5;6.4E-7;0;Iridium
14.34219071;0.0001746;86.3949;94.3911;90.0704;270.0692;1.6912E-5;6.7E-7;0;Iridium
14.34219071;0.0001746;86.3949;94.3911;90.0704;270.0692;1.6912E-5;6.7E-7;0;Iridium
14.34219128;0.000175;86.395;94.2161;90.3146;269.825;1.78E-5;7.0E-7;0;Iridium
14.34219197;0.000176;86.3951;93.9827;90.8035;269.3362;1.94E-5;7.4E-7;0;Iridium
14.34219249;0.0001767;86.3951;93.7785;91.2498;268.89;1.997E-5;7.6E-7;0;Iridium
14.34219334;0.0001771;86.3952;93.5451;91.7448;268.395;2.2429E-5;8.3E-7;0;Iridium
14.34203211;0.0003751;86.4052;93.1493;59.2589;300.8976;2.3129E-5;8.5E-7;0;Iridium
14.34216744;0.0001888;86.3951;92.903;94.4904;265.6507;2.3841E-5;8.7E-7;0;Iridium
14.34216076;0.0001812;86.3953;92.7282;93.6556;266.4847;2.5036E-5;9.0E-7;0;Iridium
14.34216123;0.0001825;86.3954;92.524;93.6265;266.5139;2.5285E-5;9.1E-7;0;Iridium
